#aV2012  7  9  0  0  0.00000000     288 DD+AD WGS84 FIT  NGA
## 1696  86400.00000000   300.00000000 56117 0.0000000000000
+   31     1  2  3  4  5  6  7  8  9 10 11 12 13 14 15 16 17
+         18 19 20 21 22 23 25 26 27 28 29 30 31 32  0  0  0
+          0  0  0  0  0  0  0  0  0  0  0  0  0  0  0  0  0
+          0  0  0  0  0  0  0  0  0  0  0  0  0  0  0  0  0
+          0  0  0  0  0  0  0  0  0  0  0  0  0  0  0  0  0
++         2  2  2  2  2  2  2  2  2  2  2  2  2  2  2  2  2
++         2  2  2  2  2  2  2  2  2  2  2  2  2  2  2  0  0
++         0  0  0  0  0  0  0  0  0  0  0  0  0  0  0  0  0
++         0  0  0  0  0  0  0  0  0  0  0  0  0  0  0  0  0
++         0  0  0  0  0  0  0  0  0  0  0  0  0  0  0  0  0
%c cc cc ccc ccc cccc cccc cccc cccc ccccc ccccc ccccc ccccc
%c cc cc ccc ccc cccc cccc cccc cccc ccccc ccccc ccccc ccccc
%f  0.0000000  0.000000000  0.00000000000  0.000000000000000
%f  0.0000000  0.000000000  0.00000000000  0.000000000000000
%i    0    0    0    0      0      0      0      0         0
%i    0    0    0    0      0      0      0      0         0
/*      NGA, ST. LOUIS,MO.                                  
/*   EPHEMERIS COMPUTED FROM  1 DAYS OF DATA
/*   EPOCHA SMOOTHER  
/* CCCCCCCCCCCCCCCCCCCCCCCCCCCCCCCCCCCCCCCCCCCCCCCCCCCCCCCCC
*  2012  7  9 13 45  0.00000000                                                 
P  1 -22443.274996 -13314.409917   5057.440633    264.836645                    
V  1  -3324.074895  -6143.722102 -30838.671762      0.015768                    
P  2   8881.005679  20549.973052  14806.621988    396.258990                    
V  2 -15921.863920  -9519.521525  22470.727995      0.012008                    
P  3  -3615.267352 -16074.231923 -21279.714062     73.072493                    
V  3  23141.979730 -12032.468205   5548.223639      0.050317                    
P  4  -4724.061392  15627.217669  20647.306639    238.644902                    
V  4 -21683.537436 -16022.464813   7390.161063      0.113817                    
P  5   2717.133510  24798.328749  -8947.959054   -333.014117                    
V  5  -4632.561061  10821.397005  28764.546597     -0.035036                    
P  6   2175.014503 -17113.429498 -20000.748467      9.150535                    
V  6  24043.906177  -9502.477022  10992.391853     -0.047916                    
P  7 -20896.135536  -2984.930609 -16266.626058     98.669566                    
V  7 -14937.140262 -14184.453191  21501.096199      0.038120                    
P  8 -12070.431693   8187.637247 -22164.487778      1.705695                    
V  8 -20182.338222 -19654.984595   3155.415161      0.001237                    
P  9  20900.305253  16326.615175     80.891029    170.547540                    
V  9   -694.293224   2149.071527 -32311.613187      0.024817                    
P 10  -9488.504946  23355.447951   7433.045820    -44.172124                    
V 10  -1742.769152 -10350.653908  29696.485191     -0.013439                    
P 11 -22802.248730 -13384.686993  -4292.910951   -279.965393                    
V 11   6424.684355  -2335.920161 -29221.792859     -0.039380                    
P 12  11961.831460  11728.674139  20646.580274     78.980474                    
V 12  -5273.928697  25610.994097 -11295.900805      0.020808                    
P 13 -25888.297261   5216.467736   3199.303661    195.763942                    
V 13   3519.105678  -3017.682417  31884.809270     -0.024398                    
P 14  18526.248953 -14543.920012  12307.371880    206.758217                    
V 14  15233.787266  -2786.371834 -26766.404996      0.006848                    
P 15  17195.161777   7583.363452 -18854.387568    -92.350565                    
V 15 -21490.237028  10583.942274 -15135.012348     -0.003481                    
P 16  -1272.600600 -24772.703174  -9041.640378   -240.585546                    
V 16   4423.512519 -10897.660564  29551.176573     -0.010819                    
P 17 -19013.637875  14798.418674  11086.788712    114.746953                    
V 17 -13931.131202   2229.705045 -27541.569700     -0.030209                    
P 18  15629.066871  -9915.428138 -18547.099599    204.408289                    
V 18  -1841.283227  24581.782421 -14770.637168      0.018135                    
P 19 -14788.031407 -10102.031855 -19792.189714   -283.024867                    
V 19  23632.027779  -7890.834221 -13272.954223     -0.036281                    
P 20 -14810.900874  -7075.384636  20734.113970     64.606800                    
V 20   3597.098199 -26567.651819  -6382.168393      0.003958                    
P 21  19529.223279  -1159.396281 -17707.138043   -235.452616                    
V 21  17029.653981  16139.120620  16670.234206     -0.024670                    
P 22  10377.879408 -22682.523850  -8746.346150    145.283649                    
V 22   1780.361857  11906.591733 -28291.007879      0.001774                    
P 23 -22689.511780  -1969.999940  14020.297210    187.186347                    
V 23  15792.749636  -7966.333592  24132.663582     -0.038405                    
P 25  15325.317350  -3913.792356  21287.546793     36.898357                    
V 25  -3231.777510  26921.407610   7324.251734      0.008067                    
P 26   3808.600458  14522.297133 -22526.015507   -351.501987                    
V 26 -26005.383631   7433.463707    758.981091      0.110944                    
P 27  19888.653779  17566.555239  -3384.013697    407.347527                    
V 27  -5050.814769  -1552.996959 -31508.746034      0.040757                    
P 28 -11782.621185  20665.176663 -11026.341781    163.146856                    
V 28    797.265420 -15045.198528 -27881.356090      0.039119                    
P 29  25258.303568  -2985.145683   7629.292316    331.791312                    
V 29  -8277.165437   5526.946884  29847.731966      0.039828                    
P 30   2416.895053 -26384.221435   1528.863288   -287.310846                    
V 30   2722.056657   2520.306530  31664.032006     -0.238948                    
P 31   2566.123848 -16183.401394  21036.019825    258.956310                    
V 31  20700.407560  16212.643483  10273.228172      0.028229                    
P 32  -9573.294795 -16800.938350  18613.260848   -463.208958                    
V 32   6732.812699 -22113.351683 -16203.379216     -0.042079                    
EOF
